<?xml version="1.0" encoding="UTF-8"?>
<kml xmlns="http://www.opengis.net/kml/2.2" xmlns:gx="http://www.google.com/kml/ext/2.2" xmlns:kml="http://www.opengis.net/kml/2.2" xmlns:atom="http://www.w3.org/2005/Atom">
<Document id="1TbLkstZhombA1S985ltNr6psYpDmySlW">
	<name>Projeto APP Santa Quitéria</name>
	<Schema name="__managed_schema" id="__managed_schema">
		<SimpleField type="int" name="1152D81F68416FD28B0A">
			<displayName>Precisão (m)</displayName>
		</SimpleField>
		<SimpleField type="int" name="12E59C7FDE416FD985D2">
			<displayName>Precisão (m)</displayName>
		</SimpleField>
		<SimpleField type="int" name="11A0A644994170658464">
			<displayName>Precisão (m)</displayName>
		</SimpleField>
		<SimpleField type="int" name="077BF6954C417066A14C">
			<displayName>Precisão (m)</displayName>
		</SimpleField>
	</Schema>
	<StyleMap id="__managed_style_019AEACF7F417BBB8ACD">
		<Pair>
			<key>normal</key>
			<styleUrl>#__managed_style_019AEACF7F417BBB8ACD_normal</styleUrl>
		</Pair>
		<Pair>
			<key>highlight</key>
			<styleUrl>#__managed_style_019AEACF7F417BBB8ACD_highlight</styleUrl>
		</Pair>
	</StyleMap>
	<gx:CascadingStyle kml:id="__managed_style_00163EF045417BBB8ACE_highlight">
		<Style>
			<IconStyle>
				<scale>1.2</scale>
				<Icon>
					<href>https://earth.google.com/earth/document/icon?color=1976d2&amp;id=2000&amp;scale=4</href>
				</Icon>
				<hotSpot x="64" y="128" xunits="pixels" yunits="insetPixels"/>
			</IconStyle>
			<LabelStyle>
			</LabelStyle>
			<LineStyle>
				<color>ff7faa00</color>
				<width>1.5</width>
			</LineStyle>
			<PolyStyle>
				<color>877fff00</color>
			</PolyStyle>
			<BalloonStyle>
			</BalloonStyle>
		</Style>
	</gx:CascadingStyle>
	<gx:CascadingStyle kml:id="__managed_style_019AEACF7F417BBB8ACD_normal">
		<Style>
			<IconStyle>
				<Icon>
					<href>https://earth.google.com/earth/document/icon?color=1976d2&amp;id=2345&amp;scale=4</href>
				</Icon>
				<hotSpot x="64" y="128" xunits="pixels" yunits="insetPixels"/>
			</IconStyle>
			<LabelStyle>
			</LabelStyle>
			<LineStyle>
				<color>ff2dc0fb</color>
				<width>2</width>
			</LineStyle>
			<PolyStyle>
				<color>40ffffff</color>
			</PolyStyle>
			<BalloonStyle>
			</BalloonStyle>
		</Style>
	</gx:CascadingStyle>
	<gx:CascadingStyle kml:id="__managed_style_14A7D1BB5F417BBB8AC6_highlight">
		<Style>
			<IconStyle>
				<scale>1.2</scale>
				<Icon>
					<href>https://earth.google.com/earth/document/icon?color=1976d2&amp;id=2000&amp;scale=4</href>
				</Icon>
				<hotSpot x="64" y="128" xunits="pixels" yunits="insetPixels"/>
			</IconStyle>
			<LabelStyle>
			</LabelStyle>
			<LineStyle>
				<color>ffffff00</color>
				<width>1.5</width>
			</LineStyle>
			<PolyStyle>
				<color>40ffffff</color>
			</PolyStyle>
			<BalloonStyle>
			</BalloonStyle>
		</Style>
	</gx:CascadingStyle>
	<gx:CascadingStyle kml:id="__managed_style_14A7D1BB5F417BBB8AC6_normal">
		<Style>
			<IconStyle>
				<Icon>
					<href>https://earth.google.com/earth/document/icon?color=1976d2&amp;id=2000&amp;scale=4</href>
				</Icon>
				<hotSpot x="64" y="128" xunits="pixels" yunits="insetPixels"/>
			</IconStyle>
			<LabelStyle>
			</LabelStyle>
			<LineStyle>
				<color>ffffff00</color>
			</LineStyle>
			<PolyStyle>
				<color>40ffffff</color>
			</PolyStyle>
			<BalloonStyle>
			</BalloonStyle>
		</Style>
	</gx:CascadingStyle>
	<StyleMap id="__managed_style_00B487B4A7417BBB8AC6">
		<Pair>
			<key>normal</key>
			<styleUrl>#__managed_style_00B487B4A7417BBB8AC6_normal</styleUrl>
		</Pair>
		<Pair>
			<key>highlight</key>
			<styleUrl>#__managed_style_00B487B4A7417BBB8AC6_highlight</styleUrl>
		</Pair>
	</StyleMap>
	<StyleMap id="__managed_style_14A7D1BB5F417BBB8AC6">
		<Pair>
			<key>normal</key>
			<styleUrl>#__managed_style_14A7D1BB5F417BBB8AC6_normal</styleUrl>
		</Pair>
		<Pair>
			<key>highlight</key>
			<styleUrl>#__managed_style_14A7D1BB5F417BBB8AC6_highlight</styleUrl>
		</Pair>
	</StyleMap>
	<gx:CascadingStyle kml:id="__managed_style_01C1624C91417BBB8ACC_highlight">
		<Style>
			<IconStyle>
				<scale>1.2</scale>
				<Icon>
					<href>https://earth.google.com/earth/document/icon?color=1976d2&amp;id=2000&amp;scale=4</href>
				</Icon>
				<hotSpot x="64" y="128" xunits="pixels" yunits="insetPixels"/>
			</IconStyle>
			<LabelStyle>
			</LabelStyle>
			<LineStyle>
				<color>ff2dc0fb</color>
				<width>3</width>
			</LineStyle>
			<PolyStyle>
				<color>40ffffff</color>
			</PolyStyle>
			<BalloonStyle>
			</BalloonStyle>
		</Style>
	</gx:CascadingStyle>
	<gx:CascadingStyle kml:id="__managed_style_00B487B4A7417BBB8AC6_normal">
		<Style>
			<IconStyle>
				<Icon>
					<href>https://earth.google.com/earth/document/icon?color=1976d2&amp;id=2000&amp;scale=4</href>
				</Icon>
				<hotSpot x="64" y="128" xunits="pixels" yunits="insetPixels"/>
			</IconStyle>
			<LabelStyle>
			</LabelStyle>
			<LineStyle>
				<color>ff0000ff</color>
			</LineStyle>
			<PolyStyle>
				<color>40ffffff</color>
			</PolyStyle>
			<BalloonStyle>
			</BalloonStyle>
		</Style>
	</gx:CascadingStyle>
	<gx:CascadingStyle kml:id="__managed_style_00B487B4A7417BBB8AC6_highlight">
		<Style>
			<IconStyle>
				<scale>1.2</scale>
				<Icon>
					<href>https://earth.google.com/earth/document/icon?color=1976d2&amp;id=2000&amp;scale=4</href>
				</Icon>
				<hotSpot x="64" y="128" xunits="pixels" yunits="insetPixels"/>
			</IconStyle>
			<LabelStyle>
			</LabelStyle>
			<LineStyle>
				<color>ff0000ff</color>
				<width>1.5</width>
			</LineStyle>
			<PolyStyle>
				<color>40ffffff</color>
			</PolyStyle>
			<BalloonStyle>
			</BalloonStyle>
		</Style>
	</gx:CascadingStyle>
	<StyleMap id="__managed_style_01C1624C91417BBB8ACC">
		<Pair>
			<key>normal</key>
			<styleUrl>#__managed_style_01C1624C91417BBB8ACC_normal</styleUrl>
		</Pair>
		<Pair>
			<key>highlight</key>
			<styleUrl>#__managed_style_01C1624C91417BBB8ACC_highlight</styleUrl>
		</Pair>
	</StyleMap>
	<gx:CascadingStyle kml:id="__managed_style_00163EF045417BBB8ACE_normal">
		<Style>
			<IconStyle>
				<Icon>
					<href>https://earth.google.com/earth/document/icon?color=1976d2&amp;id=2000&amp;scale=4</href>
				</Icon>
				<hotSpot x="64" y="128" xunits="pixels" yunits="insetPixels"/>
			</IconStyle>
			<LabelStyle>
			</LabelStyle>
			<LineStyle>
				<color>ff7faa00</color>
			</LineStyle>
			<PolyStyle>
				<color>877fff00</color>
			</PolyStyle>
			<BalloonStyle>
			</BalloonStyle>
		</Style>
	</gx:CascadingStyle>
	<gx:CascadingStyle kml:id="__managed_style_0B32B8E008417BBB8ACA_highlight">
		<Style>
			<IconStyle>
				<scale>1.2</scale>
				<Icon>
					<href>https://earth.google.com/earth/document/icon?color=1976d2&amp;id=2000&amp;scale=4</href>
				</Icon>
				<hotSpot x="64" y="128" xunits="pixels" yunits="insetPixels"/>
			</IconStyle>
			<LabelStyle>
			</LabelStyle>
			<LineStyle>
				<color>ff2dc0fb</color>
				<width>3</width>
			</LineStyle>
			<PolyStyle>
				<color>40ffffff</color>
			</PolyStyle>
			<BalloonStyle>
			</BalloonStyle>
		</Style>
	</gx:CascadingStyle>
	<StyleMap id="__managed_style_00163EF045417BBB8ACE">
		<Pair>
			<key>normal</key>
			<styleUrl>#__managed_style_00163EF045417BBB8ACE_normal</styleUrl>
		</Pair>
		<Pair>
			<key>highlight</key>
			<styleUrl>#__managed_style_00163EF045417BBB8ACE_highlight</styleUrl>
		</Pair>
	</StyleMap>
	<gx:CascadingStyle kml:id="__managed_style_01C1624C91417BBB8ACC_normal">
		<Style>
			<IconStyle>
				<Icon>
					<href>https://earth.google.com/earth/document/icon?color=1976d2&amp;id=2000&amp;scale=4</href>
				</Icon>
				<hotSpot x="64" y="128" xunits="pixels" yunits="insetPixels"/>
			</IconStyle>
			<LabelStyle>
			</LabelStyle>
			<LineStyle>
				<color>ff2dc0fb</color>
				<width>2</width>
			</LineStyle>
			<PolyStyle>
				<color>40ffffff</color>
			</PolyStyle>
			<BalloonStyle>
			</BalloonStyle>
		</Style>
	</gx:CascadingStyle>
	<gx:CascadingStyle kml:id="__managed_style_0B32B8E008417BBB8ACA_normal">
		<Style>
			<IconStyle>
				<Icon>
					<href>https://earth.google.com/earth/document/icon?color=1976d2&amp;id=2000&amp;scale=4</href>
				</Icon>
				<hotSpot x="64" y="128" xunits="pixels" yunits="insetPixels"/>
			</IconStyle>
			<LabelStyle>
			</LabelStyle>
			<LineStyle>
				<color>ff2dc0fb</color>
				<width>2</width>
			</LineStyle>
			<PolyStyle>
				<color>40ffffff</color>
			</PolyStyle>
			<BalloonStyle>
			</BalloonStyle>
		</Style>
	</gx:CascadingStyle>
	<gx:CascadingStyle kml:id="__managed_style_019AEACF7F417BBB8ACD_highlight">
		<Style>
			<IconStyle>
				<scale>1.2</scale>
				<Icon>
					<href>https://earth.google.com/earth/document/icon?color=1976d2&amp;id=2345&amp;scale=4</href>
				</Icon>
				<hotSpot x="64" y="128" xunits="pixels" yunits="insetPixels"/>
			</IconStyle>
			<LabelStyle>
			</LabelStyle>
			<LineStyle>
				<color>ff2dc0fb</color>
				<width>3</width>
			</LineStyle>
			<PolyStyle>
				<color>40ffffff</color>
			</PolyStyle>
			<BalloonStyle>
			</BalloonStyle>
		</Style>
	</gx:CascadingStyle>
	<StyleMap id="__managed_style_0B32B8E008417BBB8ACA">
		<Pair>
			<key>normal</key>
			<styleUrl>#__managed_style_0B32B8E008417BBB8ACA_normal</styleUrl>
		</Pair>
		<Pair>
			<key>highlight</key>
			<styleUrl>#__managed_style_0B32B8E008417BBB8ACA_highlight</styleUrl>
		</Pair>
	</StyleMap>
	<Folder id="5E52F48E6F000001">
		<name>Projeto APP Nascentes STQ</name>
		<open>1</open>
		<styleUrl>#__managed_style_0B32B8E008417BBB8ACA</styleUrl>
		<Placemark id="5E52F48E6F000002">
			<name>possível olho d&apos;água</name>
			<LookAt>
				<longitude>-42.06916476337212</longitude>
				<latitude>-12.67358346531101</latitude>
				<altitude>1105.148828273374</altitude>
				<heading>61.77832292777352</heading>
				<tilt>0</tilt>
				<gx:fovy>35</gx:fovy>
				<range>237.2421986307018</range>
				<altitudeMode>absolute</altitudeMode>
			</LookAt>
			<styleUrl>#__managed_style_01C1624C91417BBB8ACC</styleUrl>
			<Point>
				<coordinates>-42.06919771720612,-12.67349379487254,1105.148828273374</coordinates>
			</Point>
		</Placemark>
		<Placemark id="5E52F48E6F000003">
			<name>nascente 01</name>
			<LookAt>
				<longitude>-42.06895321513502</longitude>
				<latitude>-12.67334851995538</latitude>
				<altitude>1108.291560417532</altitude>
				<heading>87.47475766046138</heading>
				<tilt>0</tilt>
				<gx:fovy>35</gx:fovy>
				<range>241.1948832479175</range>
				<altitudeMode>absolute</altitudeMode>
			</LookAt>
			<styleUrl>#__managed_style_01C1624C91417BBB8ACC</styleUrl>
			<ExtendedData>
				<SchemaData schemaUrl="#__managed_schema">
					<SimpleData name="077BF6954C417066A14C">4</SimpleData>
				</SchemaData>
			</ExtendedData>
			<Point>
				<extrude>1</extrude>
				<coordinates>-42.0688174,-12.6732933,1110.412925051627</coordinates>
			</Point>
		</Placemark>
		<Placemark id="5E52F48E6F000004">
			<name>nascente/olho d&apos;água</name>
			<LookAt>
				<longitude>-42.0686133</longitude>
				<latitude>-12.6733317</latitude>
				<altitude>1113.070669733172</altitude>
				<heading>28</heading>
				<tilt>0</tilt>
				<gx:fovy>35</gx:fovy>
				<range>500</range>
				<altitudeMode>absolute</altitudeMode>
			</LookAt>
			<styleUrl>#__managed_style_01C1624C91417BBB8ACC</styleUrl>
			<Point>
				<coordinates>-42.0686133,-12.6733317,1113.070669733172</coordinates>
			</Point>
		</Placemark>
		<Placemark id="5E52F48E6F000005">
			<name>Nascente 02</name>
			<LookAt>
				<longitude>-42.06866839731757</longitude>
				<latitude>-12.67360733312179</latitude>
				<altitude>1112.678159995116</altitude>
				<heading>343.4611992923544</heading>
				<tilt>0</tilt>
				<gx:fovy>35</gx:fovy>
				<range>440.1471082962962</range>
				<altitudeMode>absolute</altitudeMode>
			</LookAt>
			<styleUrl>#__managed_style_01C1624C91417BBB8ACC</styleUrl>
			<Point>
				<coordinates>-42.06866839731757,-12.67360733312179,1112.678159995116</coordinates>
			</Point>
		</Placemark>
		<Placemark id="5E52F48E6F000006">
			<name>Nascente 03 &quot;Principal&quot;</name>
			<LookAt>
				<longitude>-42.0687788433223</longitude>
				<latitude>-12.67333793600107</latitude>
				<altitude>1110.549461465818</altitude>
				<heading>110.9123020692465</heading>
				<tilt>0</tilt>
				<gx:fovy>35</gx:fovy>
				<range>498.2031935662236</range>
				<altitudeMode>absolute</altitudeMode>
			</LookAt>
			<styleUrl>#__managed_style_01C1624C91417BBB8ACC</styleUrl>
			<ExtendedData>
				<SchemaData schemaUrl="#__managed_schema">
					<SimpleData name="11A0A644994170658464">3</SimpleData>
				</SchemaData>
			</ExtendedData>
			<Point>
				<extrude>1</extrude>
				<coordinates>-42.06859,-12.6732153,1113.827472830378</coordinates>
			</Point>
		</Placemark>
		<Placemark id="5E52F48E6F000007">
			<name>Nascente 04</name>
			<LookAt>
				<longitude>-42.06856526272768</longitude>
				<latitude>-12.67309435005357</latitude>
				<altitude>1114.598978059292</altitude>
				<heading>26.59808728117424</heading>
				<tilt>0</tilt>
				<gx:fovy>35</gx:fovy>
				<range>499.9999999999999</range>
				<altitudeMode>absolute</altitudeMode>
			</LookAt>
			<styleUrl>#__managed_style_01C1624C91417BBB8ACC</styleUrl>
			<Point>
				<coordinates>-42.06856526272768,-12.67309435005357,1114.598978059292</coordinates>
			</Point>
		</Placemark>
		<Placemark id="5E52F48E6F00000B">
			<name>Nascente 05</name>
			<LookAt>
				<longitude>-42.06889866229575</longitude>
				<latitude>-12.67306481750092</latitude>
				<altitude>1111.036201491063</altitude>
				<heading>12.78198154943084</heading>
				<tilt>0</tilt>
				<gx:fovy>35</gx:fovy>
				<range>214.2412357556532</range>
				<altitudeMode>absolute</altitudeMode>
			</LookAt>
			<styleUrl>#__managed_style_01C1624C91417BBB8ACC</styleUrl>
			<ExtendedData>
				<SchemaData schemaUrl="#__managed_schema">
					<SimpleData name="12E59C7FDE416FD985D2">0</SimpleData>
				</SchemaData>
			</ExtendedData>
			<Point>
				<extrude>1</extrude>
				<coordinates>-42.06895331517327,-12.67299151848449,1111.278098373016</coordinates>
			</Point>
		</Placemark>
		<Placemark id="5E52F48E6F00000C">
			<name>possível olho d&apos;água</name>
			<LookAt>
				<longitude>-42.06955737109616</longitude>
				<latitude>-12.67410160673888</latitude>
				<altitude>1099.295470512671</altitude>
				<heading>12.78211783878511</heading>
				<tilt>0</tilt>
				<gx:fovy>35</gx:fovy>
				<range>338.538946351</range>
				<altitudeMode>absolute</altitudeMode>
			</LookAt>
			<styleUrl>#__managed_style_01C1624C91417BBB8ACC</styleUrl>
			<ExtendedData>
				<SchemaData schemaUrl="#__managed_schema">
					<SimpleData name="1152D81F68416FD28B0A">0</SimpleData>
				</SchemaData>
			</ExtendedData>
			<Point>
				<extrude>1</extrude>
				<coordinates>-42.06961397097692,-12.673885479569,1099.344568894295</coordinates>
			</Point>
		</Placemark>
		<Placemark id="5E52F48E7000000E">
			<name>app_nascente01</name>
			<styleUrl>#__managed_style_00B487B4A7417BBB8AC6</styleUrl>
			<LineString>
				<tessellate>1</tessellate>
				<coordinates>
					-42.06869480324426,-12.67373891016186,1113.948947630013 -42.06873413508497,-12.67374802353578,1113.31271386186 -42.06877413146574,-12.673753757161,1112.696309039319 -42.06881448788292,-12.67375606738583,1112.059231731435 -42.06885489709175,-12.67375493662191,1111.406202599958 -42.06889505144558,-12.67375037347806,1110.742190781525 -42.06893464523801,-12.6737424126948,1110.07238858528 -42.06897337703052,-12.67373111487983,1109.401724681894 -42.06901095194722,-12.67371656604659,1108.736092668338 -42.0690470839201,-12.67369887695942,1108.236228593299 -42.06908149786672,-12.67367818229025,1107.673235966735 -42.06911393178473,-12.67365463959331,1107.118788576103 -42.06914413874639,-12.67362842810559,1106.596094380779 -42.0691718887787,-12.67359974738229,1106.109207923945 -42.06919697061405,-12.67356881577744,1105.661891716298 -42.06921919329879,-12.67353586878162,1105.390984468404 -42.06923838764691,-12.67350115722897,1105.189803710232 -42.06925440752816,-12.67346494538758,1105.032360991921 -42.06926713098042,-12.67342750894751,1104.9199740399 -42.06927646113832,-12.67338913292188,1105.070057566135 -42.06928232697061,-12.67335010947698,1105.36288295239 -42.06928468382086,-12.67331073570795,1105.705171623856 -42.06928351374744,-12.67327131137683,1106.254208795551 -42.06927882566008,-12.67323213663055,1106.862910917783 -42.06927065525188,-12.67319350971568,1107.491635517834 -42.06925906472767,-12.67315572470792,1108.135525886563 -42.06924414233028,-12.67311906927319,1108.78951565033 -42.06922600166871,-12.6730838224776,1109.448880139453 -42.06920478085319,-12.67305025266285,1109.993389923855 -42.06918064144364,-12.6730186154033,1110.48685110261 -42.06915376721969,-12.67298915156028,1110.981508179357 -42.06912436278149,-12.67296208544829,1111.473874213622 -42.06909265199202,-12.67293762312738,1111.959922695096 -42.06905887627279,-12.6729159508343,1112.436157122328 -42.06902329276588,-12.67289723356468,1112.743925594769 -42.06898617237618,-12.67288161381693,1113.000299759587 -42.06894779770906,-12.67286921050737,1113.229636843328 -42.06890846091882,-12.67286011806488,1113.430521497348 -42.06886846148443,-12.67285440571204,1113.601327909753 -42.0688281039297,-12.67285211693812,1113.765447508389 -42.06878769550478,-12.67285326916802,1114.084416045075 -42.06874754384711,-12.67285785362954,1114.386369739461 -42.06870795463935,-12.67286583542025,1114.674075235541 -42.06866922928216,-12.67287715377314,1115.01979614273 -42.06863166259969,-12.6728917225193,1115.339442892594 -42.0685955405949,-12.67290943074388,1115.63066249246 -42.06856113827234,-12.67293014363052,1115.919665829669 -42.0685287175445,-12.67295370348772,1116.392408590463 -42.06849852523763,-12.67297993094936,1116.832543833037 -42.06847079121288,-12.67300862634024,1117.236975257314 -42.06844572661616,-12.67303957119621,1117.602388870112 -42.06842352227062,-12.67307252992739,1117.926108790845 -42.06840434722394,-12.67310725161174,1118.054982835198 -42.06838834746124,-12.67314347190538,1118.345567589711 -42.06837564479368,-12.67318091505504,1118.586340507578 -42.06836633593102,-12.67321929599748,1118.75984615705 -42.06836049174533,-12.67325832252969,1118.845087548952 -42.06835815673132,-12.6732976975335,1118.879103936561 -42.06835934866765,-12.67333712123762,1118.861783737871 -42.06836405848141,-12.67337629349983,1118.793129257091 -42.06837225031722,-12.67341491609208,1118.650698159215 -42.06838386181018,-12.67345269497097,1118.590490044453 -42.0683988045605,-12.67348934251634,1118.46761861145 -42.06841696480661,-12.67352457972107,1118.277497236221 -42.06843820429113,-12.6735581383152,1118.021698054091 -42.06846236131348,-12.67358976280836,1117.702172281508 -42.06848925196086,-12.6736192124349,1117.321295944726 -42.06851867150848,-12.67364626298697,1116.882003580503 -42.06855039597812,-12.67367070852138,1116.387628301143 -42.06858418384336,-12.67369236292764,1115.841971729389 -42.06861977786838,-12.67371106134483,1115.249114778647 -42.0686569070664,-12.67372666141674,1114.613597830128 -42.06869480324426,-12.67373891016186,1113.948947630013 
				</coordinates>
			</LineString>
		</Placemark>
		<Placemark id="5E52F48E7000000F">
			<name>app_nascente02</name>
			<styleUrl>#__managed_style_00B487B4A7417BBB8AC6</styleUrl>
			<LineString>
				<tessellate>1</tessellate>
				<coordinates>
					-42.06865087175952,-12.67405141516543,1116.148460208043 -42.06869130975345,-12.67405216495618,1115.385262354346 -42.06873166080671,-12.67404947276306,1114.608670647916 -42.06877161771517,-12.67404335908252,1113.824629793253 -42.06881087627549,-12.67403387045979,1113.039027315948 -42.06884913760111,-12.67402107913447,1112.257826273436 -42.06888611039786,-12.67400508249059,1111.487099498048 -42.06892151318164,-12.67398600231514,1110.732654266064 -42.06895507642145,-12.67396398387089,1110.117486953213 -42.06898654459147,-12.67393919479044,1109.576579753043 -42.06901567811645,-12.67391182379997,1109.069514520308 -42.0690422551956,-12.67388207928238,1108.599871569009 -42.06906607349134,-12.67385018769082,1108.135184732104 -42.0690869516696,-12.67381639182459,1107.690203811411 -42.06910473078045,-12.6737809489807,1107.387817680816 -42.06911927546815,-12.67374412899485,1107.163507493276 -42.06913047500164,-12.67370621218724,1106.928668471233 -42.06913824411752,-12.6736674872283,1106.747577192767 -42.06914252366909,-12.67362824894099,1106.621697924556 -42.06914328107673,-12.67358879605622,1106.552098507574 -42.06914051057574,-12.67354942893858,1106.539074781137 -42.06913423326024,-12.67351044729952,1106.582940560782 -42.0691244969226,-12.67347214791562,1106.726520781375 -42.06911137568937,-12.67343482236915,1106.953089398432 -42.06909496945708,-12.67339875482822,1107.360372262117 -42.06907540313154,-12.67336421988329,1107.944403050522 -42.06905282567683,-12.67333148045674,1108.546744688337 -42.06902740898138,-12.67330078580114,1109.04140092526 -42.06899934654908,-12.67327236960169,1109.535800522722 -42.06896885202623,-12.6732464481971,1110.025937460446 -42.06893615757492,-12.67322321893263,1110.508286354366 -42.06890151210561,-12.67320285865759,1110.979009164774 -42.06886517938203,-12.67318552237909,1111.434716113136 -42.06882743601317,-12.67317134208182,1111.871732305301 -42.06878856934737,-12.67316042572335,1112.334678319612 -42.06874887528477,-12.67315285641215,1112.888652844889 -42.06870865602455,-12.67314869177494,1113.437101118012 -42.06866821776426,-12.67314796351796,1114.029798146539 -42.0686278683687,-12.67315067718554,1114.606175860783 -42.06858791502616,-12.67315681211796,1115.161905123124 -42.06854866190973,-12.6731663216087,1115.692636352648 -42.06851040786161,-12.67317913326002,1116.194221680802 -42.06847344411798,-12.67319514953412,1116.732709903267 -42.06843805209188,-12.67321424849575,1117.403456480552 -42.06840450123061,-12.67323628474045,1118.039410904229 -42.0683730469645,-12.6732610905016,1118.635652482675 -42.06834392876235,-12.67328847692757,1119.086552251739 -42.06831736830809,-12.67331823551954,1119.47387479598 -42.06829356781324,-12.6733501397188,1119.853367679055 -42.06827270847729,-12.67338394663155,1120.396598976539 -42.0682549491083,-12.67341939887814,1120.888243526106 -42.06824042491368,-12.67345622655249,1121.324604435288 -42.06822924647091,-12.67349414927696,1121.702460192199 -42.06822149888558,-12.67353287833693,1122.018624642576 -42.0682172411435,-12.6735721188788,1122.270968810325 -42.06821650566147,-12.67361157215483,1122.457496686445 -42.0682192980405,-12.67365093779753,1122.576708608398 -42.06822559702314,-12.67368991610645,1122.627838440555 -42.06823535465521,-12.67372821032986,1122.610337951416 -42.06824849665088,-12.67376552892404,1122.524561620757 -42.06826492295819,-12.67380158777285,1122.370949637235 -42.06828450852066,-12.67383611235079,1122.15074412887 -42.06830710422941,-12.67386883981308,1121.865574330587 -42.0683325380584,-12.67389952099675,1121.517747218882 -42.06836061637389,-12.67392792231762,1121.109759987066 -42.06839112540882,-12.67395382754864,1120.644788399933 -42.06842383289013,-12.67397703946613,1120.12639875221 -42.06845848980723,-12.67399738135129,1119.558506661906 -42.06849483230764,-12.67401469833565,1118.945360170423 -42.06853258370595,-12.67402885858013,1118.291805342512 -42.06857145659024,-12.67403975427877,1117.602660759547 -42.06861115501027,-12.67404730247953,1116.883167855475 -42.06865087175952,-12.67405141516543,1116.148460208043 
				</coordinates>
			</LineString>
		</Placemark>
		<Placemark id="5E52F48E70000010">
			<name>app_nascente03</name>
			<styleUrl>#__managed_style_00B487B4A7417BBB8AC6</styleUrl>
			<LineString>
				<tessellate>1</tessellate>
				<coordinates>
					-42.06824030360715,-12.67351738889503,1121.594515240075 -42.06826741055437,-12.67354645709575,1121.207836879814 -42.06829701149945,-12.67357310927623,1120.763344861874 -42.06832888108286,-12.67359714252597,1120.26444410005 -42.06836277667309,-12.67361837387313,1119.714854974999 -42.0683984402139,-12.67363664167747,1119.1188377941 -42.06843560018893,-12.67365180686099,1118.480795159121 -42.0684739736889,-12.67366375396684,1117.805762940918 -42.06851326856543,-12.67367239203827,1117.098752605855 -42.06855318565541,-12.67367765531118,1116.365181808083 -42.06859342105851,-12.67367950371476,1115.61065701366 -42.06863366845094,-12.6736779231766,1114.840969845265 -42.06867362141769,-12.67367292572982,1114.061796916294 -42.0687129757853,-12.67366454942143,1113.286936151415 -42.06875143193767,-12.6736528580227,1112.619034277943 -42.06878869709722,-12.67363794054363,1111.956081175708 -42.06882448755385,-12.67361991055528,1111.303192760939 -42.06885853082497,-12.67359890532511,1110.665378910989 -42.06889056772999,-12.67357508477189,1110.109439033862 -42.06892035436356,-12.67354863024822,1109.680011433447 -42.06894766395246,-12.67351974315975,1109.279589686156 -42.06897228858213,-12.6734886434319,1108.911170618834 -42.06899404077958,-12.67345556783543,1108.577447356095 -42.06901275494056,-12.6734207681838,1108.28115033174 -42.06902828859047,-12.67338450941612,1108.240932188049 -42.06904052346889,-12.67334706757998,1108.497672462731 -42.06904936642999,-12.67330872772985,1108.790089402312 -42.06905475015159,-12.67326978175693,1109.1104005656 -42.06905663364766,-12.67323052616682,1109.457704590984 -42.06905500258031,-12.67319125982218,1109.851275153909 -42.06904986936888,-12.67315228166742,1110.268765622591 -42.06904127309537,-12.67311388845273,1110.70150967335 -42.06902927920685,-12.67307637247489,1111.153164929402 -42.06901397901715,-12.67304001935195,1111.453054251901 -42.06899548901157,-12.67300510584871,1111.802739139969 -42.0689739499601,-12.67297189776972,1112.180274781949 -42.06894952584561,-12.67294064793564,1112.547624536833 -42.06892240261541,-12.67291159425847,1112.902093798631 -42.06889278676555,-12.67288495793029,1113.240844722336 -42.0688609037688,-12.67286094173932,1113.561447657524 -42.06882699635795,-12.672839728526,1113.861312135085 -42.06879132267786,-12.6728214797911,1114.194377664762 -42.06875415432027,-12.67280633446611,1114.55860369001 -42.06871577425601,-12.67279440785559,1114.918549253497 -42.06867647468074,-12.67278579075931,1115.345429575595 -42.06863655479047,-12.67278054878103,1115.775834335715 -42.06859631850374,-12.67277872182902,1116.194418793243 -42.06855607214774,-12.6727803238122,1116.598164831133 -42.06851612212647,-12.67278534253434,1116.983956761109 -42.06847677258779,-12.67279373978684,1117.348829013959 -42.06843832310805,-12.67280545163964,1117.710335170488 -42.06840106641142,-12.67282038892791,1118.25350272625 -42.06836528614123,-12.67283843793089,1118.767658571356 -42.06833125470065,-12.67285946123767,1119.11491214068 -42.06829923117881,-12.67288329879326,1119.44187319093 -42.06826945937833,-12.67290976911717,1119.745630352054 -42.06824216595921,-12.672938670685,1120.024210341308 -42.06821755871311,-12.67296978346268,1120.478434628984 -42.06819582498157,-12.67300287058164,1120.939940075826 -42.06817713022954,-12.67303768014211,1121.364832496844 -42.06816161678576,-12.67307394713088,1121.744677772171 -42.06814940275904,-12.67311139543888,1121.922711230973 -42.06814058113913,-12.67314973996325,1122.051306241006 -42.06813521908867,-12.67318868877791,1122.148564293091 -42.06813335743181,-12.67322794535605,1122.35550625755 -42.06813501034344,-12.67326721082762,1122.495948720739 -42.06814016524108,-12.67330618625473,1122.568676525341 -42.06814878288079,-12.67334457490756,1122.573296531307 -42.0681607976558,-12.67338208452339,1122.509587469545 -42.06817611809592,-12.67341842953173,1122.378121755115 -42.06819462756397,-12.67345333322842,1122.179996948597 -42.06821618514368,-12.67348652988229,1121.916617853381 -42.06824030360715,-12.67351738889503,1121.594515240075 
				</coordinates>
			</LineString>
		</Placemark>
		<Placemark id="5E52F48E70000011">
			<name>app_nascente04</name>
			<styleUrl>#__managed_style_00B487B4A7417BBB8AC6</styleUrl>
			<LineString>
				<tessellate>1</tessellate>
				<coordinates>
					-42.06810502841757,-12.67307125228072,1122.562872228811 -42.0681048754619,-12.67311046661497,1122.571981906424 -42.0681082267954,-12.67314954468325,1122.523037607544 -42.06811505690506,-12.67318818897427,1122.528527122668 -42.06812531379309,-12.67322610527906,1122.499868563364 -42.06813891937257,-12.67326300493086,1122.403424650055 -42.06815577006205,-12.67329860700284,1122.239776147901 -42.068175737574,-12.67333264044689,1122.010135874604 -42.06819866989154,-12.67336484615714,1121.716331251033 -42.06822439242573,-12.67339497894271,1121.360650077919 -42.0682527093447,-12.67342280939436,1120.945639804943 -42.06828340506462,-12.67344812563106,1120.474602936823 -42.06831624589098,-12.67347073491319,1119.951023812418 -42.06835098179775,-12.67349046510986,1119.378889141698 -42.06838734833094,-12.67350716600944,1118.762727192852 -42.06842506862193,-12.6735207104632,1118.106956593717 -42.06846385549542,-12.67353099535332,1117.416856057689 -42.0685034136558,-12.67353794237795,1116.697429877922 -42.06854344193531,-12.67354149864738,1115.95432224462 -42.068583635587,-12.67354163708672,1115.193069531741 -42.06862368860489,-12.673538356642,1114.419596847395 -42.06866329605366,-12.67353168228823,1113.639734971633 -42.06870215639034,-12.67352166483922,1112.859310917327 -42.06873997376,-12.67350838056074,1112.084392064319 -42.06877646024824,-12.67349193058985,1111.320890814296 -42.06881133807322,-12.67347244016495,1110.835273892384 -42.0688443417005,-12.67345005767223,1110.434880255861 -42.06887521986457,-12.67342495351601,1110.066335626919 -42.06890373748194,-12.67339731882131,1109.787214379686 -42.0689296774408,-12.67336736397882,1109.57786973409 -42.06895284225401,-12.6733353170431,1109.414086124919 -42.06897305556255,-12.67330142199627,1109.47131800625 -42.06899016347827,-12.67326593689054,1109.670369751507 -42.06900403575532,-12.67322913188357,1109.907890185934 -42.06901456678182,-12.67319128718165,1110.182125620478 -42.06902167638382,-12.67315269090643,1110.490914854126 -42.06902531043567,-12.67311363690134,1110.831855436589 -42.06902544127201,-12.67307442249448,1111.202421335844 -42.06902206789839,-12.67303534623501,1111.438703296127 -42.06901521599875,-12.67299670562019,1111.824878969458 -42.06900493773989,-12.67295879483048,1112.214099829674 -42.06899131137416,-12.67292190248987,1112.603405948409 -42.06897444064381,-12.67288630946851,1112.989955315522 -42.06895445399099,-12.67285228674444,1113.37065128113 -42.06893150357997,-12.67282009334051,1113.742683696037 -42.06890576413855,-12.67278997435248,1114.103164195449 -42.06887743162792,-12.67276215908298,1114.449371572306 -42.06884672175058,-12.67273685929587,1114.778653085821 -42.06881386830835,-12.67271426760399,1115.033099377925 -42.06877912142218,-12.67269455600283,1115.249387611292 -42.06874274562809,-12.67267787456108,1115.452723720027 -42.06870501786312,-12.67266435027811,1115.660877121365 -42.06866622535703,-12.67265408611718,1115.975378418086 -42.06862666344554,-12.6726471602215,1116.280179873927 -42.06858663332189,-12.67264362531939,1116.696416229026 -42.06854643974393,-12.67264350832276,1117.106898932015 -42.06850638871388,-12.67264681012234,1117.508376259968 -42.06846678514869,-12.6726535055808,1117.897968784506 -42.06842793055876,-12.67266354372418,1118.272510654451 -42.06839012075245,-12.67267684812995,1118.629334325153 -42.06835364358408,-12.67269331750878,1118.916881893071 -42.06831877676247,-12.67271282647576,1119.217982794073 -42.06828578573667,-12.67273522650487,1119.579048080738 -42.06825492167508,-12.67276034705978,1119.894041112674 -42.06822641955329,-12.67278799689213,1120.184958385469 -42.06820049636508,-12.67281796549757,1120.449526827194 -42.06817734947049,-12.67285002471835,1120.685691803967 -42.06815715509315,-12.67288393048026,1120.983568663694 -42.06814006697875,-12.67291942465089,1121.387942553589 -42.06812621522441,-12.67295623700478,1121.750922251693 -42.06811570528821,-12.67299408728074,1122.069703871385 -42.06810861718634,-12.67303268731547,1122.341911763129 -42.06810502841757,-12.67307125228072,1122.562872228811 
				</coordinates>
			</LineString>
		</Placemark>
		<Placemark id="5E52F48E70000012">
			<name>app_nascente05</name>
			<styleUrl>#__managed_style_00B487B4A7417BBB8AC6</styleUrl>
			<LineString>
				<tessellate>1</tessellate>
				<coordinates>
					-42.06872190944723,-12.67338939191504,1112.207875413896 -42.06875809595928,-12.67340721358071,1111.655066732774 -42.06879573705129,-12.67342188984511,1111.130500423164 -42.06883454615124,-12.67343330897372,1110.637923356325 -42.06887422779468,-12.67344138402951,1110.128969116503 -42.0689144798741,-12.67344605353483,1109.607608894609 -42.068954995939,-12.67344728193942,1109.07772716998 -42.06899546752913,-12.67344505989111,1108.543476994576 -42.0690355865228,-12.67343940430699,1108.008827365566 -42.06907504748279,-12.67343035824466,1107.436314522942 -42.06911354998174,-12.67341799057434,1106.949155019613 -42.06915080088948,-12.67340239545462,1106.593307825992 -42.06918651660462,-12.67338369161553,1106.301797306796 -42.06922042521386,-12.67336202145463,1106.062264905278 -42.06925226856211,-12.67333754995286,1105.876330459669 -42.0692818042178,-12.67331046341851,1105.745509897922 -42.06930880731875,-12.67328096806877,1105.910626853133 -42.06933307228394,-12.6732492884597,1106.177831229233 -42.06935441437883,-12.67321566577665,1106.49694842485 -42.06937267112156,-12.673180355998,1106.865348390049 -42.06938770352011,-12.67314362794633,1107.280252427293 -42.06939939713042,-12.67310576124179,1107.750927278456 -42.06940766292754,-12.67306704417325,1108.291327507599 -42.06941243798347,-12.67302777150349,1108.850014784975 -42.06941368594617,-12.67298824222507,1109.422714730119 -42.06941139731627,-12.67294875728406,1110.005066993097 -42.06940558951928,-12.67290961728881,1110.592633739147 -42.06939630677299,-12.67287112022139,1111.181019011457 -42.06938361975068,-12.67283355916897,1111.765634254302 -42.06936762504307,-12.67279722009251,1112.342111385126 -42.0693484444229,-12.67276237964961,1112.906020089355 -42.06932622391784,-12.67272930308838,1113.451892387073 -42.06930113269862,-12.67269824222798,1113.774047763479 -42.0692733617912,-12.67266943354149,1114.086019520175 -42.06924312262241,-12.67264309635563,1114.385460568755 -42.06921064541018,-12.672619431181,1114.669883696089 -42.06917617741097,-12.67259861818553,1114.937250137162 -42.06913998103732,-12.6725808158229,1115.18564214248 -42.06910233186003,-12.67256615962615,1115.412898720632 -42.06906351651028,-12.67255476117591,1115.617522096917 -42.0690238304974,-12.6725467072509,1115.732605109398 -42.06898357595914,-12.67254205916726,1115.799163671748 -42.06894305936151,-12.67254085231177,1115.838398066011 -42.06890258916553,-12.67254309587247,1115.849901495425 -42.06886247347907,-12.67254877276864,1115.856472611622 -42.06882301771098,-12.67255783978092,1115.918701869236 -42.06878452224615,-12.67257022788026,1115.958678514393 -42.06874728015862,-12.67258584275353,1115.976235807139 -42.06871157498028,-12.67260456552144,1115.971127714169 -42.06867767854243,-12.6726262536437,1116.062507647269 -42.06864584890623,-12.67265074200404,1116.128506125681 -42.06861632839804,-12.67267784416741,1116.318532192815 -42.06858934176456,-12.67270735379924,1116.529385607314 -42.06856509446176,-12.6727390462363,1116.68659041157 -42.06854377109069,-12.67277268019713,1116.757178655169 -42.06852553399209,-12.67280799961892,1116.788806574935 -42.06851052201037,-12.67284473560695,1116.781356116688 -42.06849884943659,-12.67288260848177,1116.827843392233 -42.06849060513823,-12.6729213299084,1116.948025864341 -42.06848585188264,-12.67296060509154,1117.017387953589 -42.06848462585906,-12.67300013501985,1117.035257775934 -42.06848693640315,-12.67303961874243,1117.001538541904 -42.06849276592579,-12.67307875566,1116.89053600946 -42.06850207004695,-12.67311724781348,1116.586575935014 -42.06851477793354,-12.67315480215239,1116.236983716603 -42.06853079283865,-12.67319113276595,1115.844610132255 -42.06854999283802,-12.67322596305979,1115.412321770801 -42.06857223175827,-12.67325902786176,1114.943432674991 -42.06859734028974,-12.67329007544076,1114.441573103626 -42.06862512727545,-12.67331886942327,1113.910474608592 -42.06865538116642,-12.67334519059288,1113.354234078379 -42.06868787163217,-12.67336883855938,1112.777134084931 -42.06872190944723,-12.67338939191504,1112.207875413896 
				</coordinates>
			</LineString>
		</Placemark>
		<Placemark id="5E52F48E70000013">
			<name>app_pequeno_corrego-30m_cada_borda</name>
			<styleUrl>#__managed_style_14A7D1BB5F417BBB8AC6</styleUrl>
			<LineString>
				<tessellate>1</tessellate>
				<coordinates>
					-42.06883348528891,-12.67333383808521,0 -42.06908940173052,-12.67338399990827,0 -42.06920626524567,-12.67353129051048,0 -42.069311476545,-12.67366503233209,0 -42.06947777474884,-12.67380300107966,0 -42.06964519199424,-12.67395336701862,0 -42.07044423605739,-12.67442102938624,0 -42.07092304702769,-12.67498109111233,0 -42.07136458875169,-12.67530826529809,0 -42.0718491929975,-12.67559399897272,0 -42.07210641656891,-12.67580548587824,0 -42.07277840513772,-12.6760899286045,0 
				</coordinates>
			</LineString>
		</Placemark>
		<Placemark id="5E52F48E70000014">
			<name>ponto 1</name>
			<visibility>0</visibility>
			<styleUrl>#__managed_style_00B487B4A7417BBB8AC6</styleUrl>
			<LineString>
				<tessellate>1</tessellate>
				<coordinates>
					-42.06931442432011,-12.67366976059428,1103.946208560029 -42.06914190440533,-12.67388867953933,1106.754030784455 
				</coordinates>
			</LineString>
		</Placemark>
		<Placemark id="5E52F48E70000015">
			<name>ponto 2</name>
			<visibility>0</visibility>
			<styleUrl>#__managed_style_00B487B4A7417BBB8AC6</styleUrl>
			<LineString>
				<tessellate>1</tessellate>
				<coordinates>
					-42.06978777052285,-12.67407647311932,1097.826978018319 -42.0696112630548,-12.67428594417249,1100.666946888255 
				</coordinates>
			</LineString>
		</Placemark>
		<Placemark id="5E52F48E70000016">
			<name>ponto 3</name>
			<visibility>0</visibility>
			<styleUrl>#__managed_style_00B487B4A7417BBB8AC6</styleUrl>
			<LineString>
				<tessellate>1</tessellate>
				<coordinates>
					-42.06978525269835,-12.67407874912874,1097.843003947613 -42.06997613997626,-12.6738807031713,1097.272767427168 
				</coordinates>
			</LineString>
		</Placemark>
		<Placemark id="5E52F48E70000017">
			<name>ponto 4</name>
			<visibility>0</visibility>
			<styleUrl>#__managed_style_00B487B4A7417BBB8AC6</styleUrl>
			<LineString>
				<tessellate>1</tessellate>
				<coordinates>
					-42.06932034563729,-12.67366729527865,1103.872112561609 -42.06950501988985,-12.67346254335644,1102.64707886855 
				</coordinates>
			</LineString>
		</Placemark>
		<Placemark id="5E52F48E70000018">
			<name>ponto 5</name>
			<visibility>0</visibility>
			<styleUrl>#__managed_style_00B487B4A7417BBB8AC6</styleUrl>
			<LineString>
				<tessellate>1</tessellate>
				<coordinates>
					-42.06909163047876,-12.67338530582624,1107.531651090931 -42.06926825024998,-12.67317165039043,1107.829634255786 
				</coordinates>
			</LineString>
		</Placemark>
		<Placemark id="5E52F48E70000019">
			<name>ponto 6</name>
			<visibility>0</visibility>
			<styleUrl>#__managed_style_00B487B4A7417BBB8AC6</styleUrl>
			<LineString>
				<tessellate>1</tessellate>
				<coordinates>
					-42.06909186970488,-12.67338880511405,1107.495326701474 -42.06891454483819,-12.67359879498771,1109.829420366391 
				</coordinates>
			</LineString>
		</Placemark>
		<Placemark id="5E52F48E7000001A">
			<name>ponto 7</name>
			<visibility>0</visibility>
			<styleUrl>#__managed_style_00B487B4A7417BBB8AC6</styleUrl>
			<LineString>
				<tessellate>1</tessellate>
				<coordinates>
					-42.06926483577919,-12.67317444710565,0 -42.06950343810489,-12.6734605720645,0 -42.06997508516427,-12.67387932255794,0 
				</coordinates>
			</LineString>
		</Placemark>
		<Placemark id="5E52F48E7000001B">
			<name>ponto 8</name>
			<visibility>0</visibility>
			<styleUrl>#__managed_style_00B487B4A7417BBB8AC6</styleUrl>
			<LineString>
				<tessellate>1</tessellate>
				<coordinates>
					-42.06961008620177,-12.67428706211799,0 -42.06913892201938,-12.6738885042401,0 -42.06891454483819,-12.67359879498771,0 
				</coordinates>
			</LineString>
		</Placemark>
		<Placemark id="5E52F48E7000001C">
			<name>Sobreposiçao_aerea</name>
			<visibility>0</visibility>
			<styleUrl>#__managed_style_00163EF045417BBB8ACE</styleUrl>
			<Polygon>
				<outerBoundaryIs>
					<LinearRing>
						<coordinates>
							-42.06895091810242,-12.67396837423578,0 -42.06882047635312,-12.67403812071639,0 -42.06860828761861,-12.67405358697908,0 -42.06848688627562,-12.67401050836348,0 -42.06842072454426,-12.67397473006493,0 -42.06834399839745,-12.67391164480106,0 -42.06827398915455,-12.67382630388327,0 -42.06823008723129,-12.67371486616791,0 -42.06821782448635,-12.67350267434074,0 -42.06814042662523,-12.67334039244768,0 -42.0681039777596,-12.67314994704097,0 -42.06809932798328,-12.67303526733907,0 -42.0681636478004,-12.67286423322045,0 -42.06825743344378,-12.67274782160347,0 -42.06843651639305,-12.67264764442491,0 -42.0686444273122,-12.67264093518705,0 -42.06877223842311,-12.67257074859247,0 -42.06892118087358,-12.67253362706058,0 -42.06911788474826,-12.67256546871237,0 -42.06926166615494,-12.67265075302559,0 -42.06937899345454,-12.67280083855523,0 -42.06941788943496,-12.67298110910853,0 -42.0693918175986,-12.67315226265023,0 -42.06933157828687,-12.6732508856732,0 -42.06950176045724,-12.67345680097782,0 -42.06997850649093,-12.67388281803277,0 -42.06960428966211,-12.67428209158851,0 -42.06913815279001,-12.67389472273155,0 -42.06908844081389,-12.67382221074123,0 -42.06895091810242,-12.67396837423578,0 
						</coordinates>
					</LinearRing>
				</outerBoundaryIs>
			</Polygon>
		</Placemark>
	</Folder>
	<Placemark id="05FD25DB6141798EB2AB">
		<name>Reservatório 01</name>
		<LookAt>
			<longitude>-42.06982552197675</longitude>
			<latitude>-12.67413262296264</latitude>
			<altitude>1096.163708867817</altitude>
			<heading>359.9999999999998</heading>
			<tilt>0</tilt>
			<gx:fovy>30.00000239285219</gx:fovy>
			<range>221.7259779169035</range>
			<altitudeMode>absolute</altitudeMode>
		</LookAt>
		<styleUrl>#__managed_style_019AEACF7F417BBB8ACD</styleUrl>
		<Point>
			<coordinates>-42.06982552197675,-12.67413262296264,1096.163708867817</coordinates>
		</Point>
	</Placemark>
	<Placemark id="0B0AC2DDF641798F55F9">
		<name>Reservatório 02</name>
		<LookAt>
			<longitude>-42.07279542125512</longitude>
			<latitude>-12.67616786179067</latitude>
			<altitude>1086.148230744054</altitude>
			<heading>359.9999999999504</heading>
			<tilt>0</tilt>
			<gx:fovy>30.00000239285219</gx:fovy>
			<range>204.3098430283863</range>
			<altitudeMode>absolute</altitudeMode>
		</LookAt>
		<styleUrl>#__managed_style_019AEACF7F417BBB8ACD</styleUrl>
		<Point>
			<coordinates>-42.07279542125512,-12.67616786179067,1086.148230744054</coordinates>
		</Point>
	</Placemark>
</Document>
</kml>
